[{"OBJECT_NAME":"SHIYAN-20B (SY-20B)","OBJECT_ID":"2022-169B","EPOCH":"2026-03-09T23:45:17.388576","MEAN_MOTION":14.29504375,"ECCENTRICITY":0.00224209,"INCLINATION":59.9961,"RA_OF_ASC_NODE":208.3414,"ARG_OF_PERICENTER":132.0718,"MEAN_ANOMALY":228.2229,"EPHEMERIS_TYPE":0,"CLASSIFICATION_TYPE":"U","NORAD_CAT_ID":54700,"ELEMENT_SET_NO":999,"REV_AT_EPOCH":16917,"BSTAR":0.00010959596,"MEAN_MOTION_DOT":1.45e-6,"MEAN_MOTION_DDOT":0},{"OBJECT_NAME":"FENGYUN 1C DEB","OBJECT_ID":"1999-025BMT","EPOCH":"2026-03-08T02:53:43.171584","MEAN_MOTION":14.40731083,"ECCENTRICITY":0.0050927,"INCLINATION":99.0257,"RA_OF_ASC_NODE":30.09,"ARG_OF_PERICENTER":342.5956,"MEAN_ANOMALY":17.3484,"EPHEMERIS_TYPE":0,"CLASSIFICATION_TYPE":"U","NORAD_CAT_ID":31261,"ELEMENT_SET_NO":999,"REV_AT_EPOCH":98579,"BSTAR":0.001650932,"MEAN_MOTION_DOT":5.314e-5,"MEAN_MOTION_DDOT":0}]
